QIANFAN-1               
1 60379U 24140A   25283.51563462  .00000038  00000+0  39335-4 0  9995
2 60379  88.9742 305.8384 0018814  43.1669 317.0953 13.50975860 58811
QIANFAN-2               
1 60380U 24140B   25283.54439125  .00000040  00000+0  42874-4 0  9993
2 60380  88.9728 305.6833 0013216  19.2892 340.8757 13.50967970 58872
QIANFAN-3               
1 60381U 24140C   25283.55267741  .00000032  00000+0  31308-4 0  9999
2 60381  88.9727 305.8198 0014769  30.4672 329.7334 13.50967990 58782
QIANFAN-4               
1 60382U 24140D   25283.52797993  .00000035  00000+0  35380-4 0  9991
2 60382  88.9750 305.7042 0013543  21.6631 338.5090 13.50974992 58903
QIANFAN-5               
1 60383U 24140E   25283.50331003  .00000046  00000+0  53010-4 0  9998
2 60383  88.9727 305.8506 0016391  40.4282 319.8084 13.50971233 58763
QIANFAN-6               
1 60384U 24140F   25283.52392267  .00000031  00000+0  29159-4 0  9991
2 60384  88.9753 305.5777 0013865  27.1783 333.0091 13.50972629 58969
QIANFAN-7               
1 60385U 24140G   25283.52134134  .00000305  00000+0  11797-3 0  9991
2 60385  88.9758 301.1624 0012840 244.7043 115.2822 14.27574149 61377
QIANFAN-8               
1 60386U 24140H   25283.53209671  .00000035  00000+0  35401-4 0  9991
2 60386  88.9755 305.8134 0017364  27.5689 332.6379 13.50970714 58811
